0 LEASAT 2
1 15236U 84093C   13281.50687903 -.00000189  00000-0  10000-3 0  3979
2 15236 016.7083 357.7907 0034216 152.8016 207.3903 00.97457476 82969
0 LEASAT 2
1 15236U 84093C   13281.50688397 -.00000189  00000-0  10000-3 0  3966
2 15236 016.7085 357.7908 0034075 151.5978 208.6063 00.97457569 82962
0 LEASAT 2
1 15236U 84093C   13283.55899876 -.00000176  00000-0  10000-3 0  3987
2 15236 016.7087 357.7695 0034172 152.6259 207.5665 00.97456978 82980
0 LEASAT 2
1 15236U 84093C   13283.55902850  .00000000  00000-0  10000-3 0  3990
2 15236 016.7096 357.7692 0034081 151.7713 208.4306 00.97452491 82989
0 LEASAT 2
1 15236U 84093C   13286.63717154 -.00000114  00000-0  10000-3 0  3990
2 15236 016.7094 357.7375 0034339 152.7698 207.4130 00.97455579 83013
0 LEASAT 2
1 15236U 84093C   13288.68931782 -.00000079  00000-0  10000-3 0  4005
2 15236 016.7097 357.7166 0034295 152.9951 207.1803 00.97454883 83032
0 LEASAT 2
1 15236U 84093C   13293.81969587 -.00000118  00000-0  10000-3 0  4015
2 15236 016.7105 357.6629 0034309 153.1432 207.0292 00.97455960 83081
